NORAD_CAT_ID,OBJECT_NAME,OBJECT_TYPE,EPOCH,MEAN_MOTION,ECCENTRICITY,INCLINATION,RA_OF_ASC_NODE,ARG_OF_PERICENTER,MEAN_ANOMALY,BSTAR,MEAN_MOTION_DOT,MEAN_MOTION_DDOT,TLE_LINE0,TLE_LINE1,TLE_LINE2,SEMIMAJOR_AXIS,PERIOD,APOGEE,PERIGEE,DECAYED
49415.0,STARLINK-3159,PAYLOAD,2022-08-20 11:02:17,15.088259699999998,0.0002229,53.2158,282.6201,44.9137,315.2035,7.0714e-06,-1.76e-06,0.0,0 STARLINK-3159,1 49415U 21104H   22232.45992010 -.00000176  00000-0  70714-5 0  9991,2 49415  53.2158 282.6201 0002229  44.9137 315.2035 15.08825970 44016,6917.9230000000025,95.438,541.33,538.246,0.0
49415.0,STARLINK-3159,PAYLOAD,2022-08-20 15:48:26,15.08826407,0.0002201,53.2158,281.7276,42.0266,318.0895,-3.262e-05,-8.07e-06,0.0,0 STARLINK-3159,1 49415U 21104H   22232.65864218 -.00000807  00000-0 -32620-4 0  9996,2 49415  53.2158 281.7276 0002201  42.0266 318.0895 15.08826407 42952,6917.922,95.438,541.31,538.264,0.0
49415.0,STARLINK-3159,PAYLOAD,2022-08-21 12:28:27,15.08835403,0.0002233,53.2154,277.8625,38.7263,321.3889,-5.3549e-05,-1.14e-05,0.0,0 STARLINK-3159,1 49415U 21104H   22233.51976067 -.00001140  00000-0 -53549-4 0  9992,2 49415  53.2154 277.8625 0002233  38.7263 321.3889 15.08835403 44178,6917.894,95.438,541.304,538.215,0.0
49415.0,STARLINK-3159,PAYLOAD,2022-08-21 20:25:22,15.08843848,0.0002218,53.2158,276.375,39.942,320.1735,-0.00013685,-2.466e-05,0.0,0 STARLINK-3159,1 49415U 21104H   22233.85095813 -.00002466  00000-0 -13685-3 0  9998,2 49415  53.2158 276.3750 0002218  39.9420 320.1735 15.08843848 43130,6917.869000000002,95.437,541.268,538.1990000000002,0.0
49415.0,STARLINK-3159,PAYLOAD,2022-08-22 09:08:28,15.08830073,0.0002273,53.2158,273.9961,39.4277,320.688,0.0001047,1.378e-05,0.0,0 STARLINK-3159,1 49415U 21104H   22234.38088203  .00001378  00000-0  10470-3 0  9990,2 49415  53.2158 273.9961 0002273  39.4277 320.6880 15.08830073 43214,6917.911,95.438,541.3480000000002,538.203,0.0
49415.0,STARLINK-3159,PAYLOAD,2022-08-22 20:16:10,15.08833466,0.0002319999999999,53.2158,271.9147,39.9373,320.1790000000001,0.00010766,1.425e-05,0.0,0 STARLINK-3159,1 49415U 21104H   22234.84456203  .00001425  00000-0  10766-3 0  9991,2 49415  53.2158 271.9147 0002320  39.9373 320.1790 15.08833466 43284,6917.9,95.438,541.37,538.16,0.0
49415.0,STARLINK-3159,PAYLOAD,2022-08-23 12:10:01,15.08838605,0.0002351,53.2158,268.9409,40.5206,319.5961,8.4609e-05,1.058e-05,0.0,0 STARLINK-3159,1 49415U 21104H   22235.50696048  .00001058  00000-0  84609-4 0  9998,2 49415  53.2158 268.9409 0002351  40.5206 319.5961 15.08838605 43381,6917.885,95.438,541.376,538.123,0.0
49415.0,STARLINK-3159,PAYLOAD,2022-08-24 04:03:52,15.08843541,0.0002386,53.2158,265.9673,41.0397,319.0774,8.08e-05,9.98e-06,0.0,0 STARLINK-3159,1 49415U 21104H   22236.16935702  .00000998  00000-0  80800-4 0  9995,2 49415  53.2158 265.9673 0002386  41.0397 319.0774 15.08843541 44570,6917.87,95.437,541.385,538.0840000000002,0.0
49415.0,STARLINK-3159,PAYLOAD,2022-08-24 12:00:47,15.08845728,0.0002421999999999,53.2157,264.4805,40.9617,319.1557,7.533e-05,9.11e-06,0.0,0 STARLINK-3159,1 49415U 21104H   22236.50055472  .00000911  00000-0  75330-4 0  9997,2 49415  53.2157 264.4805 0002422  40.9617 319.1557 15.08845728 43538,6917.863,95.437,541.403,538.052,0.0
49415.0,STARLINK-3159,PAYLOAD,2022-08-25 00:43:53,15.0883725,0.0002467,53.2159,262.1017,42.7589,317.3594,-8.1208e-06,-4.18e-06,0.0,0 STARLINK-3159,1 49415U 21104H   22237.03048191 -.00000418  00000-0 -81208-5 0  9992,2 49415  53.2159 262.1017 0002467  42.7589 317.3594 15.08837250 44709,6917.889,95.438,541.46,538.047,0.0
49415.0,STARLINK-3159,PAYLOAD,2022-08-25 08:40:49,15.08835064,0.0002476,53.2161,260.6149,43.3344,316.7842,-4.779e-05,-1.049e-05,0.0,0 STARLINK-3159,1 49415U 21104H   22237.36168506 -.00001049  00000-0 -47790-4 0  9999,2 49415  53.2161 260.6149 0002476  43.3344 316.7842 15.08835064 43661,6917.895,95.438,541.4730000000002,538.048,0.0
49415.0,STARLINK-3159,PAYLOAD,2022-08-25 18:13:08,15.08836395,0.0002484999999999,53.2156,258.8304,42.0162,318.1020000000001,-4.0163e-05,-9.28e-06,0.0,0 STARLINK-3159,1 49415U 21104H   22237.75912451 -.00000928  00000-0 -40163-4 0  9990,2 49415  53.2156 258.8304 0002485  42.0162 318.1020 15.08836395 43720,6917.891,95.438,541.476,538.0369999999998,0.0
49415.0,STARLINK-3159,PAYLOAD,2022-08-26 03:45:27,15.08838889,0.0002493,53.2156,257.0461,42.767,317.3516,-4.2503e-05,-9.65e-06,0.0,0 STARLINK-3159,1 49415U 21104H   22238.15656353 -.00000965  00000-0 -42503-4 0  9992,2 49415  53.2156 257.0461 0002493  42.7670 317.3516 15.08838889 44873,6917.884,95.438,541.4730000000002,538.024,0.0
49415.0,STARLINK-3159,PAYLOAD,2022-08-26 10:06:59,15.08837859,0.0002497,53.2157,255.8567,42.9612,317.1574,-4.7416e-05,-1.043e-05,0.0,0 STARLINK-3159,1 49415U 21104H   22238.42152458 -.00001043  00000-0 -47416-4 0  9995,2 49415  53.2157 255.8567 0002497  42.9612 317.1574 15.08837859 43821,6917.887,95.438,541.479,538.025,0.0
49415.0,STARLINK-3159,PAYLOAD,2022-08-26 18:03:55,15.08837422,0.0002518,53.2157,254.3699,43.0964,317.0224,-4.1164e-05,-9.44e-06,0.0,0 STARLINK-3159,1 49415U 21104H   22238.75272514 -.00000944  00000-0 -41164-4 0  9990,2 49415  53.2157 254.3699 0002518  43.0964 317.0224 15.08837422 43879,6917.888000000001,95.438,541.495,538.011,0.0
49415.0,STARLINK-3159,PAYLOAD,2022-08-27 08:22:23,15.08834456,0.0002525999999999,53.2156,251.6933,43.0613,317.0576,6.5716e-05,7.57e-06,0.0,0 STARLINK-3159,1 49415U 21104H   22239.34888526  .00000757  00000-0  65716-4 0  9991,2 49415  53.2156 251.6933 0002526  43.0613 317.0576 15.08834456 43963,6917.897,95.438,541.51,538.015,0.0
49415.0,STARLINK-3159,PAYLOAD,2022-08-27 17:54:42,15.08836987,0.0002542,53.2156,249.9091,43.7699,316.3495,6.552e-05,7.54e-06,0.0,0 STARLINK-3159,1 49415U 21104H   22239.74632469  .00000754  00000-0  65520-4 0  9998,2 49415  53.2156 249.9091 0002542  43.7699 316.3495 15.08836987 44028,6917.89,95.438,541.513,537.996,0.0
49415.0,STARLINK-3159,PAYLOAD,2022-08-28 09:48:33,15.08842866,0.0002566999999999,53.2156,246.9354,45.2206,314.8994,8.176699999999999e-05,1.013e-05,0.0,0 STARLINK-3159,1 49415U 21104H   22240.40872087  .00001013  00000-0  81767-4 0  9995,2 49415  53.2156 246.9354 0002567  45.2206 314.8994 15.08842866 45217,6917.871999999999,95.437,541.512,537.961,0.0
49415.0,STARLINK-3159,PAYLOAD,2022-08-28 12:59:19,15.08843789,0.0002572,53.2156,246.3406,45.485,314.6352,8.7136e-05,1.099e-05,0.0,0 STARLINK-3159,1 49415U 21104H   22240.54120000  .00001099  00000-0  87136-4 0  9991,2 49415  53.2156 246.3406 0002572  45.4850 314.6352 15.08843789 44144,6917.869000000002,95.437,541.513,537.955,0.0
49415.0,STARLINK-3159,PAYLOAD,2022-08-29 06:28:33,15.08848062,0.0002651,53.2157,243.0695,46.0357,314.0853,8.719600000000001e-05,1.1e-05,0.0,0 STARLINK-3159,1 49415U 21104H   22241.26983483  .00001100  00000-0  87196-4 0  9992,2 49415  53.2157 243.0695 0002651  46.0357 314.0853 15.08848062 44257,6917.856,95.437,541.555,537.887,0.0
49415.0,STARLINK-3159,PAYLOAD,2022-08-30 04:43:58,15.08835016,0.0002753,53.2159,238.9074,44.9124,315.209,-7.867699999999999e-05,-1.5399999999999998e-05,0.0,0 STARLINK-3159,1 49415U 21104H   22242.19720986 -.00001540  00000-0 -78677-4 0  9996,2 49415  53.2159 238.9074 0002753  44.9124 315.2090 15.08835016 45482,6917.896,95.438,541.665,537.856,0.0
49415.0,STARLINK-3159,PAYLOAD,2022-08-30 11:05:31,15.08838421,0.0002694,53.2154,237.7175,45.5983,314.5229,-4.4632e-05,-9.99e-06,0.0,0 STARLINK-3159,1 49415U 21104H   22242.46216667 -.00000999  00000-0 -44632-4 0  9993,2 49415  53.2154 237.7175 0002694  45.5983 314.5229 15.08838421 44433,6917.885,95.438,541.614,537.887,0.0
49415.0,STARLINK-3159,PAYLOAD,2022-08-31 09:20:54,15.08836794,0.0002739,53.2152,233.5541,47.3448,312.7775,5.7199e-05,6.22e-06,0.0,0 STARLINK-3159,1 49415U 21104H   22243.38952431  .00000622  00000-0  57199-4 0  9994,2 49415  53.2152 233.5541 0002739  47.3448 312.7775 15.08836794 44570,6917.89,95.438,541.65,537.86,0.0
49415.0,STARLINK-3159,PAYLOAD,2022-09-01 09:11:41,15.08843388,0.0002768,53.2154,229.0931,48.7316,311.3914,0.00010822,1.434e-05,0.0,0 STARLINK-3159,1 49415U 21104H   22244.38311951  .00001434  00000-0  10822-3 0  9994,2 49415  53.2154 229.0931 0002768  48.7316 311.3914 15.08843388 44720,6917.87,95.437,541.65,537.82,0.0
49415.0,STARLINK-3159,PAYLOAD,2022-09-02 04:16:20,15.08835002,0.0002755,53.2163,225.525,53.9765,306.1482,-9.7891e-06,-4.44e-06,0.0,0 STARLINK-3159,1 49415U 21104H   22245.17801075 -.00000444  00000-0 -97891-5 0  9998,2 49415  53.2163 225.5250 0002755  53.9765 306.1482 15.08835002 45937,6917.896,95.438,541.6669999999998,537.855,0.0
49415.0,STARLINK-3159,PAYLOAD,2022-09-02 07:27:06,15.08835732,0.000278,53.2158,224.9304,50.752,309.3718,-1.3523e-06,-3.1e-06,0.0,0 STARLINK-3159,1 49415U 21104H   22245.31049062 -.00000310  00000-0 -13523-5 0  9996,2 49415  53.2158 224.9304 0002780  50.7520 309.3718 15.08835732 44864,6917.893,95.438,541.682,537.835,0.0
49415.0,STARLINK-3159,PAYLOAD,2022-09-02 15:24:01,15.08838168,0.0002806,53.216,223.4436,51.2175,308.9067,9.1714e-06,-1.43e-06,0.0,0 STARLINK-3159,1 49415U 21104H   22245.64168954 -.00000143  00000-0  91714-5 0  9995,2 49415  53.2160 223.4436 0002806  51.2175 308.9067 15.08838168 44912,6917.886,95.438,541.692,537.81,0.0
49415.0,STARLINK-3159,PAYLOAD,2022-09-03 04:07:06,15.08844207,0.0002695,53.2159,221.0644,44.6451,315.4758,1.4041e-05,-6.5e-07,0.0,0 STARLINK-3159,1 49415U 21104H   22246.17160550 -.00000065  00000-0  14041-4 0  9998,2 49415  53.2159 221.0644 0002695  44.6451 315.4758 15.08844207 46085,6917.868,95.437,541.597,537.868,0.0
49415.0,STARLINK-3159,PAYLOAD,2022-09-03 08:53:16,15.08845432,0.0002808,53.2158,220.1722,52.7932,307.3316,3.2924e-05,2.36e-06,0.0,0 STARLINK-3159,1 49415U 21104H   22246.37032419  .00000236  00000-0  32924-4 0  9991,2 49415  53.2158 220.1722 0002808  52.7932 307.3316 15.08845432 45025,6917.864000000001,95.437,541.6709999999998,537.786,0.0
